{"type": "FeatureCollection", "features": [ {"type": "Feature", "properties": {"norad_id": 34682, "name": "COSMOS 2251 DEB", "group": "cosmos-2251-debris", "lat": 69.45301963147764, "lon": 135.21425748262135, "alt_km": 699.8858006455848, "timestamp": "2025-12-11T10:53:16.284892+00:00", "meta": {"OBJECT_NAME": "COSMOS 2251 DEB", "OBJECT_ID": "1993-036YC", "EPOCH": "2025-12-10T17:08:28.653792", "MEAN_MOTION": 14.58871992, "ECCENTRICITY": 0.00184327, "INCLINATION": 74.0396, "RA_OF_ASC_NODE": 86.8453, "ARG_OF_PERICENTER": 219.9592, "MEAN_ANOMALY": 295.1845, "EPHEMERIS_TYPE": 0, "CLASSIFICATION_TYPE": "U", "NORAD_CAT_ID": 34682, "ELEMENT_SET_NO": 999, "REV_AT_EPOCH": 88656, "BSTAR": 0.0013701333, "MEAN_MOTION_DOT": 6.407e-05, "MEAN_MOTION_DDOT": 0}, "tle": {"line1": "1 34682U 93036YC  25344.71422053  .00006407  00000+0  13701-2 0  9996", "line2": "2 34682  74.0396  86.8453 0018432 219.9592 295.1845 14.58871992886564"}}, "geometry": {"type": "Point", "coordinates": [135.21425748262135, 69.45301963147764]}}, {"type": "Feature", "properties": {"norad_id": 34683, "name": "COSMOS 2251 DEB", "group": "cosmos-2251-debris", "lat": -22.83870824622097, "lon": -78.33183363475622, "alt_km": 671.0115210605536, "timestamp": "2025-12-11T10:53:16.284902+00:00", "meta": {"OBJECT_NAME": "COSMOS 2251 DEB", "OBJECT_ID": "1993-036YD", "EPOCH": "2025-12-10T14:20:08.537856", "MEAN_MOTION": 14.64436522, "ECCENTRICITY": 0.0018349, "INCLINATION": 74.029, "RA_OF_ASC_NODE": 96.3863, "ARG_OF_PERICENTER": 211.2533, "MEAN_ANOMALY": 159.7007, "EPHEMERIS_TYPE": 0, "CLASSIFICATION_TYPE": "U", "NORAD_CAT_ID": 34683, "ELEMENT_SET_NO": 999, "REV_AT_EPOCH": 88317, "BSTAR": 0.002307, "MEAN_MOTION_DOT": 0.0001223, "MEAN_MOTION_DDOT": 0}, "tle": {"line1": "1 34683U 93036YD  25344.59732104  .00012230  00000+0  23070-2 0  9995", "line2": "2 34683  74.0290  96.3863 0018349 211.2533 159.7007 14.64436522883178"}}, "geometry": {"type": "Point", "coordinates": [-78.33183363475622, -22.83870824622097]}}, {"type": "Feature", "properties": {"norad_id": 34685, "name": "COSMOS 2251 DEB", "group": "cosmos-2251-debris", "lat": 25.60336667051214, "lon": 159.11571049981333, "alt_km": 706.8433745042676, "timestamp": "2025-12-11T10:53:16.284913+00:00", "meta": {"OBJECT_NAME": "COSMOS 2251 DEB", "OBJECT_ID": "1993-036YF", "EPOCH": "2025-12-10T22:17:02.140800", "MEAN_MOTION": 14.57478056, "ECCENTRICITY": 0.0014303, "INCLINATION": 74.0293, "RA_OF_ASC_NODE": 152.2261, "ARG_OF_PERICENTER": 256.3395, "MEAN_ANOMALY": 255.9794, "EPHEMERIS_TYPE": 0, "CLASSIFICATION_TYPE": "U", "NORAD_CAT_ID": 34685, "ELEMENT_SET_NO": 999, "REV_AT_EPOCH": 88505, "BSTAR": 0.0016053, "MEAN_MOTION_DOT": 7.281e-05, "MEAN_MOTION_DDOT": 0}, "tle": {"line1": "1 34685U 93036YF  25344.92849700  .00007281  00000+0  16053-2 0  9998", "line2": "2 34685  74.0293 152.2261 0014303 256.3395 255.9794 14.57478056885050"}}, "geometry": {"type": "Point", "coordinates": [159.11571049981333, 25.60336667051214]}}, {"type": "Feature", "properties": {"norad_id": 34689, "name": "COSMOS 2251 DEB", "group": "cosmos-2251-debris", "lat": 61.12422246181889, "lon": 14.511763205703408, "alt_km": 1038.2023412529961, "timestamp": "2025-12-11T10:53:16.284924+00:00", "meta": {"OBJECT_NAME": "COSMOS 2251 DEB", "OBJECT_ID": "1993-036YK", "EPOCH": "2025-12-09T15:43:43.204224", "MEAN_MOTION": 14.04380278, "ECCENTRICITY": 0.022877, "INCLINATION": 74.0977, "RA_OF_ASC_NODE": 228.7634, "ARG_OF_PERICENTER": 298.3373, "MEAN_ANOMALY": 87.6678, "EPHEMERIS_TYPE": 0, "CLASSIFICATION_TYPE": "U", "NORAD_CAT_ID": 34689, "ELEMENT_SET_NO": 999, "REV_AT_EPOCH": 84298, "BSTAR": 0.0057121, "MEAN_MOTION_DOT": 0.00011476, "MEAN_MOTION_DDOT": 0}, "tle": {"line1": "1 34689U 93036YK  25343.65536116  .00011476  00000+0  57121-2 0  9997", "line2": "2 34689  74.0977 228.7634 0228770 298.3373  87.6678 14.04380278842989"}}, "geometry": {"type": "Point", "coordinates": [14.511763205703408, 61.12422246181889]}}, {"type": "Feature", "properties": {"norad_id": 34721, "name": "COSMOS 2251 DEB", "group": "cosmos-2251-debris", "lat": 2.737038895940855, "lon": 147.6911377636813, "alt_km": 905.0315039308962, "timestamp": "2025-12-11T10:53:16.284934+00:00", "meta": {"OBJECT_NAME": "COSMOS 2251 DEB", "OBJECT_ID": "1993-036YP", "EPOCH": "2025-12-10T17:44:16.747872", "MEAN_MOTION": 13.96837353, "ECCENTRICITY": 0.0223786, "INCLINATION": 73.9238, "RA_OF_ASC_NODE": 329.7201, "ARG_OF_PERICENTER": 269.0318, "MEAN_ANOMALY": 278.609, "EPHEMERIS_TYPE": 0, "CLASSIFICATION_TYPE": "U", "NORAD_CAT_ID": 34721, "ELEMENT_SET_NO": 999, "REV_AT_EPOCH": 85121, "BSTAR": 0.0024611737, "MEAN_MOTION_DOT": 4.204e-05, "MEAN_MOTION_DDOT": 0}, "tle": {"line1": "1 34721U 93036YP  25344.73908273  .00004204  00000+0  24612-2 0  9991", "line2": "2 34721  73.9238 329.7201 0223786 269.0318 278.6090 13.96837353851219"}}, "geometry": {"type": "Point", "coordinates": [147.6911377636813, 2.737038895940855]}}, {"type": "Feature", "properties": {"norad_id": 34722, "name": "COSMOS 2251 DEB", "group": "cosmos-2251-debris", "lat": -21.848671846492717, "lon": -28.299015363233703, "alt_km": 820.9041824756996, "timestamp": "2025-12-11T10:53:16.284944+00:00", "meta": {"OBJECT_NAME": "COSMOS 2251 DEB", "OBJECT_ID": "1993-036YQ", "EPOCH": "2025-12-10T23:13:55.059168", "MEAN_MOTION": 14.11925435, "ECCENTRICITY": 0.0167221, "INCLINATION": 73.8737, "RA_OF_ASC_NODE": 339.2282, "ARG_OF_PERICENTER": 265.0827, "MEAN_ANOMALY": 122.7739, "EPHEMERIS_TYPE": 0, "CLASSIFICATION_TYPE": "U", "NORAD_CAT_ID": 34722, "ELEMENT_SET_NO": 999, "REV_AT_EPOCH": 86220, "BSTAR": 0.0012298, "MEAN_MOTION_DOT": 2.538e-05, "MEAN_MOTION_DDOT": 0}, "tle": {"line1": "1 34722U 93036YQ  25344.96799837  .00002538  00000+0  12298-2 0  9996", "line2": "2 34722  73.8737 339.2282 0167221 265.0827 122.7739 14.11925435862207"}}, "geometry": {"type": "Point", "coordinates": [-28.299015363233703, -21.848671846492717]}}, {"type": "Feature", "properties": {"norad_id": 34726, "name": "COSMOS 2251 DEB", "group": "cosmos-2251-debris", "lat": 34.51407555106865, "lon": 157.41997999955078, "alt_km": 662.5843476192122, "timestamp": "2025-12-11T10:53:16.284955+00:00", "meta": {"OBJECT_NAME": "COSMOS 2251 DEB", "OBJECT_ID": "1993-036YU", "EPOCH": "2025-12-11T00:21:43.820064", "MEAN_MOTION": 14.59471055, "ECCENTRICITY": 0.0042063, "INCLINATION": 74.0292, "RA_OF_ASC_NODE": 349.6136, "ARG_OF_PERICENTER": 141.0021, "MEAN_ANOMALY": 219.4191, "EPHEMERIS_TYPE": 0, "CLASSIFICATION_TYPE": "U", "NORAD_CAT_ID": 34726, "ELEMENT_SET_NO": 999, "REV_AT_EPOCH": 88477, "BSTAR": 0.00059341, "MEAN_MOTION_DOT": 2.821e-05, "MEAN_MOTION_DDOT": 0}, "tle": {"line1": "1 34726U 93036YU  25345.01509051  .00002821  00000+0  59341-3 0  9990", "line2": "2 34726  74.0292 349.6136 0042063 141.0021 219.4191 14.59471055884776"}}, "geometry": {"type": "Point", "coordinates": [157.41997999955078, 34.51407555106865]}}, {"type": "Feature", "properties": {"norad_id": 34728, "name": "COSMOS 2251 DEB", "group": "cosmos-2251-debris", "lat": -30.000422057790786, "lon": -115.25623909235097, "alt_km": 660.6510333889082, "timestamp": "2025-12-11T10:53:16.284965+00:00", "meta": {"OBJECT_NAME": "COSMOS 2251 DEB", "OBJECT_ID": "1993-036YW", "EPOCH": "2025-12-11T04:29:59.771904", "MEAN_MOTION": 14.70820448, "ECCENTRICITY": 0.0041029, "INCLINATION": 74.0167, "RA_OF_ASC_NODE": 254.7862, "ARG_OF_PERICENTER": 52.8225, "MEAN_ANOMALY": 307.668, "EPHEMERIS_TYPE": 0, "CLASSIFICATION_TYPE": "U", "NORAD_CAT_ID": 34728, "ELEMENT_SET_NO": 999, "REV_AT_EPOCH": 88777, "BSTAR": 0.0012296, "MEAN_MOTION_DOT": 7.588e-05, "MEAN_MOTION_DDOT": 0}, "tle": {"line1": "1 34728U 93036YW  25345.18749736  .00007588  00000+0  12296-2 0  9998", "line2": "2 34728  74.0167 254.7862 0041029  52.8225 307.6680 14.70820448887770"}}, "geometry": {"type": "Point", "coordinates": [-115.25623909235097, -30.000422057790786]}}, {"type": "Feature", "properties": {"norad_id": 34729, "name": "COSMOS 2251 DEB", "group": "cosmos-2251-debris", "lat": -66.39920948462473, "lon": -40.01472857817789, "alt_km": 635.6616265097246, "timestamp": "2025-12-11T10:53:16.284976+00:00", "meta": {"OBJECT_NAME": "COSMOS 2251 DEB", "OBJECT_ID": "1993-036YX", "EPOCH": "2025-12-10T19:48:52.202016", "MEAN_MOTION": 14.82705163, "ECCENTRICITY": 0.00118502, "INCLINATION": 74.0183, "RA_OF_ASC_NODE": 2.221, "ARG_OF_PERICENTER": 122.4592, "MEAN_ANOMALY": 54.1081, "EPHEMERIS_TYPE": 0, "CLASSIFICATION_TYPE": "U", "NORAD_CAT_ID": 34729, "ELEMENT_SET_NO": 999, "REV_AT_EPOCH": 88429, "BSTAR": 0.0028828524, "MEAN_MOTION_DOT": 0.00023342, "MEAN_MOTION_DDOT": 0}, "tle": {"line1": "1 34729U 93036YX  25344.82560419  .00023342  00000+0  28829-2 0  9993", "line2": "2 34729  74.0183   2.2210 0011850 122.4592  54.1081 14.82705163884294"}}, "geometry": {"type": "Point", "coordinates": [-40.01472857817789, -66.39920948462473]}}, {"type": "Feature", "properties": {"norad_id": 34732, "name": "COSMOS 2251 DEB", "group": "cosmos-2251-debris", "lat": -40.0108786544189, "lon": 81.69478226461712, "alt_km": 731.3401821521575, "timestamp": "2025-12-11T10:53:16.284987+00:00", "meta": {"OBJECT_NAME": "COSMOS 2251 DEB", "OBJECT_ID": "1993-036ZA", "EPOCH": "2025-12-10T07:00:38.330784", "MEAN_MOTION": 14.47296381, "ECCENTRICITY": 0.0040439, "INCLINATION": 74.0451, "RA_OF_ASC_NODE": 97.7594, "ARG_OF_PERICENTER": 249.2333, "MEAN_ANOMALY": 138.9201, "EPHEMERIS_TYPE": 0, "CLASSIFICATION_TYPE": "U", "NORAD_CAT_ID": 34732, "ELEMENT_SET_NO": 999, "REV_AT_EPOCH": 88108, "BSTAR": 0.00026368, "MEAN_MOTION_DOT": 9.47e-06, "MEAN_MOTION_DDOT": 0}, "tle": {"line1": "1 34732U 93036ZA  25344.29211031  .00000947  00000+0  26368-3 0  9994", "line2": "2 34732  74.0451  97.7594 0040439 249.2333 138.9201 14.47296381881083"}}, "geometry": {"type": "Point", "coordinates": [81.69478226461712, -40.0108786544189]}}]}